OBJECT_NAME,OBJECT_ID,EPOCH,MEAN_MOTION,ECCENTRICITY,INCLINATION,RA_OF_ASC_NODE,ARG_OF_PERICENTER,MEAN_ANOMALY,EPHEMERIS_TYPE,CLASSIFICATION_TYPE,NORAD_CAT_ID,ELEMENT_SET_NO,REV_AT_EPOCH,BSTAR,MEAN_MOTION_DOT,MEAN_MOTION_DDOT
TANSAT,2016-081A,2026-05-16T23:54:11.071008,14.59923296,.00216421,98.5362,136.3327,47.9187,312.3848,0,U,41898,999,50007,.11035354E-3,.48E-5,0
JILIN-1 03,2017-002B,2026-05-16T23:45:39.328992,15.40779050,.00036208,97.1951,144.5330,290.9551,69.1308,0,U,41914,999,51705,.2576635E-3,.10469E-3,0
CARTOSAT-2D,2017-008A,2026-05-16T22:32:55.684896,15.19242832,.00044473,97.4131,196.8236,7.3281,352.8018,0,U,41948,999,51283,.21938103E-3,.4556E-4,0
CARTOSAT-2E,2017-036C,2026-05-16T22:58:01.552224,15.19221101,.00042851,97.4300,197.2693,65.6749,294.4933,0,U,42767,999,49340,.23433186E-3,.4868E-4,0
IRIDIUM 113,2017-039A,2026-05-16T20:16:07.170816,14.34218060,.00022664,86.3967,335.2863,92.6028,267.5427,0,U,42803,999,46669,.20249219E-4,.76E-6,0
NORSAT 2,2017-042D,2026-05-16T22:07:14.321856,15.21253433,.00104741,97.4019,310.8779,155.0247,205.1497,0,U,42828,999,48298,.3852805E-3,.8553E-4,0
TECHNOSAT,2017-042E,2026-05-16T20:44:30.922656,15.04746380,.00174014,97.4244,295.7254,197.1863,162.8777,0,U,42829,999,48199,.16810006E-3,.2317E-4,0
FLYING LAPTOP,2017-042G,2026-05-16T22:05:49.344000,15.00926474,.00177599,97.4541,293.6881,228.1952,131.7756,0,U,42831,999,48176,.18949994E-3,.2364E-4,0
WNISAT 1R,2017-042L,2026-05-16T21:46:32.301984,15.01608091,.00099254,97.4801,294.1560,270.1675,89.8413,0,U,42835,999,48181,.12875077E-3,.1613E-4,0
LEMUR-2-GREENBERG,2017-042N,2026-05-16T18:37:14.942496,15.30288051,.00103989,97.3803,317.5736,115.3010,244.9309,0,U,42837,999,48358,.51294253E-3,.1499E-3,0
LEMUR-2-FURIAUS,2017-042R,2026-05-16T22:38:01.286016,15.29145638,.00081236,97.3757,315.7671,165.9472,194.1996,0,U,42840,999,48343,.45398904E-3,.12788E-3,0
CORVUS BC2,2017-042X,2026-05-16T21:41:45.136032,15.06081542,.00121653,97.4038,299.4812,212.2828,147.7656,0,U,42846,999,48235,.13924284E-3,.1977E-4,0
CORVUS BC1,2017-042Y,2026-05-16T21:39:06.497856,15.06252371,.00117021,97.4068,300.2730,187.2002,172.9059,0,U,42847,999,48238,.1295917E-3,.1844E-4,0
VRSS-2,2017-060A,2026-05-16T23:25:49.656288,14.81137088,.00164336,97.6540,176.1059,196.9544,163.1122,0,U,42954,999,46383,.1108236E-4,.36E-6,0
MOHAMMED VI-A,2017-070A,2026-05-16T23:33:56.375136,14.77095353,.00015502,97.9571,209.7403,105.1652,254.9730,0,U,43005,999,45937,.10461722E-3,.688E-5,0
FENGYUN 3D,2017-072A,2026-05-16T22:14:48.291648,14.19732199,.00023215,99.0105,110.7875,114.3204,245.8214,0,U,43010,999,44055,.19493336E-4,-.5E-7,0
NOAA 20 (JPSS-1),2017-073A,2026-05-16T22:00:09.264960,14.19505535,.00013835,98.7762,76.6595,47.3059,312.8233,0,U,43013,999,44003,.45954702E-4,.53E-6,0
MAKERSAT 0,2017-073D,2026-05-16T22:44:18.513600,15.30711347,.0111034,97.4673,19.2487,25.2140,335.4462,0,U,43016,999,46168,.60644964E-3,.21752E-3,0
RADFXSAT (FOX-1B),2017-073E,2026-05-16T21:56:21.331392,15.12107174,.01538334,97.4744,4.7788,76.7759,285.0580,0,U,43017,999,46066,.37736864E-3,.8611E-4,0
JILIN-1 04,2017-074A,2026-05-16T22:30:26.390880,15.41603632,.00027222,97.4835,245.7436,319.9722,40.1324,0,U,43022,999,46945,.26308431E-3,.10983E-3,0
JILIN-1 05,2017-074B,2026-05-16T22:23:13.221888,15.33360821,.00046847,97.4842,242.6822,355.3143,4.8054,0,U,43023,999,46921,.19833636E-3,.6315E-4,0
JILIN-1 06,2017-074C,2026-05-16T23:13:11.363232,15.33320905,.00066848,97.4769,239.7623,3.4835,356.6453,0,U,43024,999,46905,.14324108E-3,.4533E-4,0
IRIDIUM 116,2017-083C,2026-05-16T23:00:31.415616,14.34218953,.00020164,86.3960,335.0635,79.8225,280.3198,0,U,43072,999,43969,.17639509E-4,.69E-6,0
IRIDIUM 130,2017-083D,2026-05-16T18:53:55.142592,14.34218227,.00022311,86.3968,335.4074,81.6832,278.4617,0,U,43073,999,43961,.21463684E-4,.8E-6,0
LKW-2,2017-084A,2026-05-16T22:46:43.605984,15.25900923,.00025123,97.1218,178.2109,44.8174,315.3268,0,U,43080,999,46692,.27451464E-3,.697E-4,0
SUPERVIEW-1 03,2018-002A,2026-05-16T22:48:44.571168,15.38236507,.00462596,97.3137,221.8615,293.7961,65.8438,0,U,43099,999,46356,.33337854E-3,.12946E-3,0
CARTOSAT-2F,2018-004A,2026-05-16T23:43:27.035904,15.19204466,.00017017,97.4816,196.9233,47.4378,312.6999,0,U,43111,999,46259,.15006682E-4,.248E-5,0
LKW-3,2018-006A,2026-05-16T22:58:18.325920,15.34603085,.0004103,97.6575,296.3340,69.3349,290.8333,0,U,43146,999,46392,.32234412E-3,.10729E-3,0
