TANSAT                  
1 41898U 16081A   26136.99596147  .00000480  00000+0  11035-3 0  9998
2 41898  98.5362 136.3327 0021642  47.9187 312.3848 14.59923296500072
JILIN-1 03              
1 41914U 17002B   26136.99003853  .00010469  00000+0  25766-3 0  9992
2 41914  97.1951 144.5330 0003620 290.9551  69.1308 15.40779050517058
CARTOSAT-2D             
1 41948U 17008A   26136.93953339  .00004556  00000+0  21938-3 0  9999
2 41948  97.4131 196.8236 0004447   7.3281 352.8018 15.19242832512831
CARTOSAT-2E             
1 42767U 17036C   26136.95696241  .00004868  00000+0  23433-3 0  9996
2 42767  97.4300 197.2693 0004285  65.6749 294.4933 15.19221101493401
IRIDIUM 113             
1 42803U 17039A   26136.84452744  .00000076  00000+0  20249-4 0  9996
2 42803  86.3967 335.2863 0002266  92.6028 267.5427 14.34218060466694
NORSAT 2                
1 42828U 17042D   26136.92169354  .00008553  00000+0  38528-3 0  9994
2 42828  97.4019 310.8779 0010474 155.0247 205.1497 15.21253433482989
TECHNOSAT               
1 42829U 17042E   26136.86424679  .00002317  00000+0  16810-3 0  9994
2 42829  97.4244 295.7254 0017401 197.1863 162.8777 15.04746380481996
FLYING LAPTOP           
1 42831U 17042G   26136.92071000  .00002364  00000+0  18950-3 0  9999
2 42831  97.4541 293.6881 0017759 228.1952 131.7756 15.00926474481769
WNISAT 1R               
1 42835U 17042L   26136.90731831  .00001613  00000+0  12875-3 0  9992
2 42835  97.4801 294.1560 0009925 270.1675  89.8413 15.01608091481819
LEMUR-2-GREENBERG       
1 42837U 17042N   26136.77586739  .00014990  00000+0  51294-3 0  9994
2 42837  97.3803 317.5736 0010398 115.3010 244.9309 15.30288051483582
LEMUR-2-FURIAUS         
1 42840U 17042R   26136.94307044  .00012788  00000+0  45399-3 0  9999
2 42840  97.3757 315.7671 0008123 165.9472 194.1996 15.29145638483431
CORVUS BC2              
1 42846U 17042X   26136.90399463  .00001977  00000+0  13924-3 0  9994
2 42846  97.4038 299.4812 0012165 212.2828 147.7656 15.06081542482352
CORVUS BC1              
1 42847U 17042Y   26136.90215854  .00001844  00000+0  12959-3 0  9996
2 42847  97.4068 300.2730 0011702 187.2002 172.9059 15.06252371482387
VRSS-2                  
1 42954U 17060A   26136.97626917  .00000036  00000+0  11082-4 0  9997
2 42954  97.6540 176.1059 0016433 196.9544 163.1122 14.81137088463832
MOHAMMED VI-A           
1 43005U 17070A   26136.98190249  .00000688  00000+0  10462-3 0  9994
2 43005  97.9571 209.7403 0001550 105.1652 254.9730 14.77095353459370
FENGYUN 3D              
1 43010U 17072A   26136.92694782 -.00000005  00000+0  19493-4 0  9995
2 43010  99.0105 110.7875 0002321 114.3204 245.8214 14.19732199440556
NOAA 20 (JPSS-1)        
1 43013U 17073A   26136.91677390  .00000053  00000+0  45955-4 0  9998
2 43013  98.7762  76.6595 0001383  47.3059 312.8233 14.19505535440034
MAKERSAT 0              
1 43016U 17073D   26136.94743650  .00021752  00000+0  60645-3 0  9998
2 43016  97.4673  19.2487 0111034  25.2140 335.4462 15.30711347461681
RADFXSAT (FOX-1B)       
1 43017U 17073E   26136.91413578  .00008611  00000+0  37737-3 0  9994
2 43017  97.4744   4.7788 0153833  76.7759 285.0580 15.12107174460669
JILIN-1 04              
1 43022U 17074A   26136.93780545  .00010983  00000+0  26308-3 0  9991
2 43022  97.4835 245.7436 0002722 319.9722  40.1324 15.41603632469459
JILIN-1 05              
1 43023U 17074B   26136.93279192  .00006315  00000+0  19834-3 0  9993
2 43023  97.4842 242.6822 0004684 355.3143   4.8054 15.33360821469215
JILIN-1 06              
1 43024U 17074C   26136.96749263  .00004533  00000+0  14324-3 0  9997
2 43024  97.4769 239.7623 0006684   3.4835 356.6453 15.33320905469053
IRIDIUM 116             
1 43072U 17083C   26136.95869694  .00000069  00000+0  17640-4 0  9995
2 43072  86.3960 335.0635 0002016  79.8225 280.3198 14.34218953439699
IRIDIUM 130             
1 43073U 17083D   26136.78744378  .00000080  00000+0  21464-4 0  9990
2 43073  86.3968 335.4074 0002231  81.6832 278.4617 14.34218227439613
LKW-2                   
1 43080U 17084A   26136.94911581  .00006970  00000+0  27451-3 0  9994
2 43080  97.1218 178.2109 0002512  44.8174 315.3268 15.25900923466922
SUPERVIEW-1 03          
1 43099U 18002A   26136.95051587  .00012946  00000+0  33338-3 0  9998
2 43099  97.3137 221.8615 0046259 293.7961  65.8438 15.38236507463563
CARTOSAT-2F             
1 43111U 18004A   26136.98850736  .00000248  00000+0  15007-4 0  9997
2 43111  97.4816 196.9233 0001701  47.4378 312.6999 15.19204466462595
LKW-3                   
1 43146U 18006A   26136.95715655  .00010729  00000+0  32234-3 0  9999
2 43146  97.6575 296.3340 0004103  69.3349 290.8333 15.34603085463925
